OBJECT_NAME,OBJECT_ID,EPOCH,MEAN_MOTION,ECCENTRICITY,INCLINATION,RA_OF_ASC_NODE,ARG_OF_PERICENTER,MEAN_ANOMALY,EPHEMERIS_TYPE,CLASSIFICATION_TYPE,NORAD_CAT_ID,ELEMENT_SET_NO,REV_AT_EPOCH,BSTAR,MEAN_MOTION_DOT,MEAN_MOTION_DDOT
PERSEUS-M1,2014-033AF,2026-05-15T06:03:45.502272,14.95514202,.0012809,97.9631,78.8508,52.0717,308.1659,0,U,40039,999,64571,.13036982E-3,.1385E-4,0
POLYITAN-1,2014-033AJ,2026-05-15T00:23:12.134688,15.32059740,.0005448,98.0965,158.1693,256.8825,103.1807,0,U,40042,999,64851,.38530337E-3,.11848E-3,0
TIGRISAT,2014-033AK,2026-05-14T16:42:55.617120,14.85012026,.00494223,97.7792,285.4873,182.8795,177.2143,0,U,40043,999,64065,.1620765E-3,.1357E-4,0
AEROCUBE 6A,2014-033AM,2026-05-14T21:21:45.793440,14.97724215,.00402868,97.7217,302.2088,125.5871,234.9116,0,U,40045,999,64163,.37574805E-3,.4419E-4,0
AEROCUBE 6B,2014-033AN,2026-05-14T22:11:19.897440,14.99144113,.00381264,97.7168,301.9656,118.9284,241.5771,0,U,40046,999,64177,.34763248E-3,.4231E-4,0
CANX-4,2014-034C,2026-05-15T04:28:31.148832,14.81199694,.0013983,98.3166,9.2824,114.6751,245.5918,0,U,40055,999,63964,.74195804E-4,.521E-5,0
CANX-5,2014-034D,2026-05-15T04:26:48.682752,14.81216765,.00139852,98.3167,9.3227,114.8638,245.4029,0,U,40056,999,63045,.75023741E-4,.527E-5,0
UKUBE-1,2014-037F,2026-05-14T10:41:05.831232,15.12988036,.00003725,98.4241,134.1892,78.4472,281.6798,0,U,40074,999,64345,.28714916E-3,.499E-4,0
BRITE-PL2 (HEWELIUSZ),2014-049B,2026-05-15T07:10:17.145120,14.94460965,.00133264,97.9060,247.0553,214.0455,145.9911,0,U,40119,999,63653,.78356244E-4,.787E-5,0
AEROCUBE 5C,2015-058B,2026-05-15T02:40:42.927744,14.91256944,.01298377,64.7688,5.4722,76.2735,285.2791,0,U,40965,999,36072,.19273911E-3,.208E-4,0
AEROCUBE 7,2015-058C,2026-05-15T04:50:23.754912,14.95457045,.0119647,64.7632,348.1138,74.9229,286.5087,0,U,40966,999,36102,.22485722E-3,.2696E-4,0
FOX-1A (AO-85),2015-058D,2026-05-15T01:57:04.081536,14.90765194,.01290509,64.7770,21.8508,69.5693,291.9222,0,U,40967,999,10863,.20270242E-3,.2163E-4,0
SINOD-D 1,2015-058E,2026-05-15T01:11:44.185344,14.95635688,.01175621,64.7764,2.6651,66.3586,294.9817,0,U,40968,999,11170,.25283302E-3,.3055E-4,0
SNAP-3 ALICE,2015-058G,2026-05-15T05:05:24.414432,15.53612042,.00330041,64.7534,217.2895,29.2058,331.0921,0,U,40970,999,11175,.66589573E-3,.43715E-3,0
LMRST-SAT,2015-058H,2026-05-15T02:17:17.882304,14.90391093,.01308383,64.7775,18.0830,71.5967,289.9319,0,U,40971,999,10862,.20924993E-3,.2225E-4,0
SNAP-3 EDDIE,2015-058J,2026-05-15T06:59:54.748032,15.54763743,.00334464,64.7451,207.9776,32.9074,327.4142,0,U,40972,999,11390,.64587268E-3,.44266E-3,0
PROPCUBE 3,2015-058K,2026-05-15T00:15:45.547776,14.94021479,.01229762,64.7697,356.1731,73.1236,288.3320,0,U,40973,999,10984,.22674289E-3,.2634E-4,0
BISONSAT,2015-058L,2026-05-15T02:41:01.306752,15.15494249,.00787299,64.7594,280.5149,61.4117,299.4900,0,U,40974,999,11060,.39227512E-3,.7866E-4,0
SNAP-3 JIMI,2015-058M,2026-05-14T23:13:10.924320,15.01944647,.01050023,64.7654,324.8494,69.1376,292.0947,0,U,40975,999,10923,.30032676E-3,.4252E-4,0
PROPCUBE 1 (FLORA),2015-058N,2026-05-15T05:18:42.630336,14.89023440,.01296451,64.7749,37.3903,73.8443,287.6892,0,U,40976,999,11135,.17378546E-3,.1743E-4,0
SINOD-D 3,2015-058P,2026-05-15T02:29:34.622880,14.93750711,.01181241,64.7740,19.1076,71.3481,290.0414,0,U,40977,999,10981,.24724589E-3,.2834E-4,0
HORYU-4,2016-012D,2026-05-14T19:51:52.372800,15.78477287,.0005199,30.9889,320.3702,40.9689,319.1358,0,U,41340,999,56551,.72841598E-3,.13415E-2,0
RAVAN,2016-067B,2026-05-15T04:23:34.389024,15.51530915,.00072407,97.9943,21.0253,114.3585,245.8422,0,U,41849,999,52257,.41412939E-3,.24458E-3,0
CELTEE 1,2016-067C,2026-05-15T03:34:54.534720,15.19337224,.00016652,98.0715,359.4652,57.3154,302.8240,0,U,41850,999,52086,.15193439E-3,.3132E-4,0
OPTICUBE 04,2016-067D,2026-05-15T03:15:16.396416,15.09511470,.00145646,98.0733,345.6927,225.9001,134.1029,0,U,41851,999,52018,.97770572E-4,.1499E-4,0
AEROCUBE 8D,2016-067E,2026-05-14T14:34:32.352960,15.23905183,.00020372,98.0730,2.2303,237.2066,122.8973,0,U,41852,999,52095,.19369744E-3,.4596E-4,0
AEROCUBE 8C,2016-067F,2026-05-15T03:54:32.327424,15.24146844,.00057244,98.0599,0.0989,159.9264,200.2198,0,U,41853,999,52103,.18725205E-3,.4475E-4,0
CORVUS BC2,2017-042X,2026-05-14T17:04:32.283264,15.06073140,.00120659,97.4039,297.3753,221.1701,138.8617,0,U,42846,999,48202,.1450606E-3,.2062E-4,0
CORVUS BC1,2017-042Y,2026-05-15T05:47:33.158400,15.06245364,.00115215,97.4069,298.6767,193.6684,166.4234,0,U,42847,999,48213,.12268568E-3,.1743E-4,0
MAKERSAT 0,2017-073D,2026-05-15T02:48:30.417408,15.30640636,.01113267,97.4678,17.4074,31.6362,329.1506,0,U,43016,999,46140,.48879124E-3,.17482E-3,0
