PERSEUS-M1              
1 40039U 14033AF  26135.25260998  .00001385  00000+0  13037-3 0  9998
2 40039  97.9631  78.8508 0012809  52.0717 308.1659 14.95514202645719
POLYITAN-1              
1 40042U 14033AJ  26135.01611267  .00011848  00000+0  38530-3 0  9995
2 40042  98.0965 158.1693 0005448 256.8825 103.1807 15.32059740648519
TIGRISAT                
1 40043U 14033AK  26134.69647705  .00001357  00000+0  16208-3 0  9997
2 40043  97.7792 285.4873 0049422 182.8795 177.2143 14.85012026640657
AEROCUBE 6A             
1 40045U 14033AM  26134.89011335  .00004419  00000+0  37575-3 0  9997
2 40045  97.7217 302.2088 0040286 125.5871 234.9116 14.97724215641638
AEROCUBE 6B             
1 40046U 14033AN  26134.92453585  .00004231  00000+0  34763-3 0  9997
2 40046  97.7168 301.9656 0038126 118.9284 241.5771 14.99144113641776
CANX-4                  
1 40055U 14034C   26135.18647163  .00000521  00000+0  74196-4 0  9997
2 40055  98.3166   9.2824 0013983 114.6751 245.5918 14.81199694639647
CANX-5                  
1 40056U 14034D   26135.18528568  .00000527  00000+0  75024-4 0  9992
2 40056  98.3167   9.3227 0013985 114.8638 245.4029 14.81216765630456
UKUBE-1                 
1 40074U 14037F   26134.44520638  .00004990  00000+0  28715-3 0  9995
2 40074  98.4241 134.1892 0000372  78.4472 281.6798 15.12988036643453
BRITE-PL2 (HEWELIUSZ)   
1 40119U 14049B   26135.29880955  .00000787  00000+0  78356-4 0  9990
2 40119  97.9060 247.0553 0013326 214.0455 145.9911 14.94460965636531
AEROCUBE 5C             
1 40965U 15058B   26135.11160796  .00002080  00000+0  19274-3 0  9996
2 40965  64.7688   5.4722 0129837  76.2735 285.2791 14.91256944360722
AEROCUBE 7              
1 40966U 15058C   26135.20166383  .00002696  00000+0  22486-3 0  9997
2 40966  64.7632 348.1138 0119647  74.9229 286.5087 14.95457045361026
FOX-1A (AO-85)          
1 40967U 15058D   26135.08129724  .00002163  00000+0  20270-3 0  9990
2 40967  64.7770  21.8508 0129050  69.5693 291.9222 14.90765194108639
SINOD-D 1               
1 40968U 15058E   26135.04981696  .00003055  00000+0  25283-3 0  9991
2 40968  64.7764   2.6651 0117562  66.3586 294.9817 14.95635688111704
SNAP-3 ALICE            
1 40970U 15058G   26135.21208813  .00043715  00000+0  66590-3 0  9999
2 40970  64.7534 217.2895 0033004  29.2058 331.0921 15.53612042111754
LMRST-SAT               
1 40971U 15058H   26135.09534586  .00002225  00000+0  20925-3 0  9998
2 40971  64.7775  18.0830 0130838  71.5967 289.9319 14.90391093108624
SNAP-3 EDDIE            
1 40972U 15058J   26135.29160588  .00044266  00000+0  64587-3 0  9991
2 40972  64.7451 207.9776 0033446  32.9074 327.4142 15.54763743113906
PROPCUBE 3              
1 40973U 15058K   26135.01094384  .00002634  00000+0  22674-3 0  9996
2 40973  64.7697 356.1731 0122976  73.1236 288.3320 14.94021479109848
BISONSAT                
1 40974U 15058L   26135.11182068  .00007866  00000+0  39228-3 0  9990
2 40974  64.7594 280.5149 0078729  61.4117 299.4900 15.15494249110608
SNAP-3 JIMI             
1 40975U 15058M   26134.96748755  .00004252  00000+0  30033-3 0  9995
2 40975  64.7654 324.8494 0105002  69.1376 292.0947 15.01944647109232
PROPCUBE 1 (FLORA)      
1 40976U 15058N   26135.22132674  .00001743  00000+0  17379-3 0  9993
2 40976  64.7749  37.3903 0129645  73.8443 287.6892 14.89023440111354
SINOD-D 3               
1 40977U 15058P   26135.10387295  .00002834  00000+0  24725-3 0  9997
2 40977  64.7740  19.1076 0118124  71.3481 290.0414 14.93750711109819
HORYU-4                 
1 41340U 16012D   26134.82768950  .00134150  00000+0  72842-3 0  9992
2 41340  30.9889 320.3702 0005199  40.9689 319.1358 15.78477287565516
RAVAN                   
1 41849U 16067B   26135.18303691  .00024458  00000+0  41413-3 0  9992
2 41849  97.9943  21.0253 0007240 114.3585 245.8422 15.51530915522575
CELTEE 1                
1 41850U 16067C   26135.14924230  .00003132  00000+0  15193-3 0  9990
2 41850  98.0715 359.4652 0001665  57.3154 302.8240 15.19337224520864
OPTICUBE 04             
1 41851U 16067D   26135.13560644  .00001499  00000+0  97771-4 0  9992
2 41851  98.0733 345.6927 0014564 225.9001 134.1029 15.09511470520185
AEROCUBE 8D             
1 41852U 16067E   26134.60731890  .00004596  00000+0  19370-3 0  9996
2 41852  98.0730   2.2303 0002037 237.2066 122.8973 15.23905183520957
AEROCUBE 8C             
1 41853U 16067F   26135.16287416  .00004475  00000+0  18725-3 0  9998
2 41853  98.0599   0.0989 0005724 159.9264 200.2198 15.24146844521035
CORVUS BC2              
1 42846U 17042X   26134.71148476  .00002062  00000+0  14506-3 0  9990
2 42846  97.4039 297.3753 0012065 221.1701 138.8617 15.06073140482029
CORVUS BC1              
1 42847U 17042Y   26135.24135600  .00001743  00000+0  12269-3 0  9994
2 42847  97.4069 298.6767 0011521 193.6684 166.4234 15.06245364482134
MAKERSAT 0              
1 43016U 17073D   26135.11701872  .00017482  00000+0  48879-3 0  9996
2 43016  97.4678  17.4074 0111326  31.6362 329.1506 15.30640636461400
